0 DELTA 1 DEB
1 17024U 77065FT  13281.17147140  .00002305  00000-0  52531-2 0  4318
2 17024 029.4377 303.2808 0873520 311.6182 041.2653 12.30202262862792
0 DELTA 1 DEB
1 17024U 77065FT  13283.11981083  .00002569  00000-0  58786-2 0  4327
2 17024 029.4371 295.2452 0873221 324.4654 030.0644 12.30224057863035
0 DELTA 1 DEB
1 17024U 77065FT  13288.07196010  .00002894  00000-0  66217-2 0  4335
2 17024 029.4371 274.8191 0874579 357.2261 002.3646 12.30250195863646
0 DELTA 1 DEB
1 17024U 77065FT  13291.07570611  .00002675  00000-0  61072-2 0  4344
2 17024 029.4385 262.4318 0875193 017.0883 345.7290 12.30265884864011
0 DELTA 1 DEB
1 17024U 77065FT  13293.10521237  .00002675  00000-0  61030-2 0  4355
2 17024 029.4353 254.0498 0875535 030.5207 334.3449 12.30274811864269
0 DELTA 1 DEB
1 17024U 77065FT  13295.13464907  .00002694  00000-0  61379-2 0  4368
2 17024 029.4328 245.6480 0876043 043.9826 322.7159 12.30284600864512
